[
    {
        "fname": "Alvin",
        "lname": "Hampton",
        "tel": "(334)201-8097",
        "address": "7008 Curabitur Ave",
        "city": "Sandwich",
        "state": "SD",
        "zip": 34859
    },
    {
        "fname": "Milada",
        "lname": "Sessa",
        "tel": "(583)320-9743",
        "address": "6368 Etiam St",
        "city": "Big Bear",
        "state": "NY",
        "zip": 21160
    },
    {
        "fname": "Herbert",
        "lname": "Sessa",
        "tel": "(174)689-2856",
        "address": "3156 Magna St",
        "city": "Palm Beach Gardens",
        "state": "AK",
        "zip": 18264
    },
    {
        "fname": "Jeannine",
        "lname": "Hunt",
        "tel": "(363)370-3190",
        "address": "225 Risus Ave",
        "city": "Winter Park",
        "state": "GA",
        "zip": 34968
    },
    {
        "fname": "Sandra",
        "lname": "Crantek",
        "tel": "(302)225-2320",
        "address": "4091 Risus Ln",
        "city": "Higginsville",
        "state": "IA",
        "zip": 69248
    },
    {
        "fname": "Ning",
        "lname": "Green",
        "tel": "(982)201-1901",
        "address": "2067 Sit Ln",
        "city": "Lake City",
        "state": "HI",
        "zip": 49269
    },
    {
        "fname": "Elmer",
        "lname": "Krout",
        "tel": "(419)935-5663",
        "address": "7096 Aliquam Ave",
        "city": "Winston Salem",
        "state": "MS",
        "zip": 65991
    },
    {
        "fname": "Camelyn",
        "lname": "Googleanalytics",
        "tel": "(414)557-0475",
        "address": "349 Pulvinar St",
        "city": "Evergreen",
        "state": "WY",
        "zip": 13890
    },
    {
        "fname": "Oren",
        "lname": "Noriega",
        "tel": "(997)292-0300",
        "address": "1624 Sollicitudin Ln",
        "city": "Spencer",
        "state": "MN",
        "zip": 58520
    },
    {
        "fname": "Kurtis",
        "lname": "Neville",
        "tel": "(914)609-0638",
        "address": "8668 Lacus Dr",
        "city": "Nashville",
        "state": "DE",
        "zip": 86601
    }
]